TYVAK-0130              
1 48606U 21041BF  26068.48452211  .00008857  00000+0  35198-3 0  9997
2 48606  52.9967 128.6030 0008953 215.1647 144.8760 15.26049141265157
STARLINK-30441          
1 57869U 23144F   26067.99352673 -.00000376  00000+0 -43216-5 0  9992
2 57869  42.9993 288.8591 0001239 270.5362  89.5347 15.26742636137496
